ORBCOMM FM103           
1 40091U 14040F   25345.49597251  .00001181  00000+0  28789-3 0  9991
2 40091  47.0054 260.2423 0001880 353.3399   6.7462 14.58531628589984
ORBCOMM FM114           
1 41179U 15081A   25345.58127604  .00001012  00000+0  25169-3 0  9998
2 41179  46.9966 168.7898 0001721  83.8099 276.2983 14.58583153530366
ORBCOMM FM119           
1 41180U 15081B   25345.57728190  .00001239  00000+0  30050-3 0  9992
2 41180  47.0008  78.1714 0001053 192.2619 167.8241 14.58498677531616
ORBCOMM FM105           
1 41181U 15081C   25345.60997945  .00000605  00000+0  21490-3 0  9997
2 41181  47.0010 100.2964 0001178  18.2170 341.8753 14.45402858526417
ORBCOMM FM110           
1 41182U 15081D   25345.57126402  .00001253  00000+0  30314-3 0  9991
2 41182  47.0000 168.3455 0002781 283.1864  76.8711 14.58575541530239
ORBCOMM FM118           
1 41183U 15081E   25345.46872863  .00000950  00000+0  23867-3 0  9997
2 41183  47.0021 169.1270 0003149 247.0328 113.0226 14.58569881530325
ORBCOMM FM112           
1 41184U 15081F   25345.60843383  .00001337  00000+0  32085-3 0  9991
2 41184  46.9996  77.0030 0000698  61.4900 298.6056 14.58574289531562
ORBCOMM FM113           
1 41185U 15081G   25345.31168243  .00001581  00000+0  37280-3 0  9998
2 41185  47.0011  78.7607 0000458  92.3981 267.6957 14.58568206531509
